NORAD_CAT_ID,OBJECT_NAME,OBJECT_TYPE,EPOCH,MEAN_MOTION,ECCENTRICITY,INCLINATION,RA_OF_ASC_NODE,ARG_OF_PERICENTER,MEAN_ANOMALY,BSTAR,MEAN_MOTION_DOT,MEAN_MOTION_DDOT,TLE_LINE0,TLE_LINE1,TLE_LINE2,SEMIMAJOR_AXIS,PERIOD,APOGEE,PERIGEE,DECAYED
52296.0,STARLINK-3766,PAYLOAD,2024-07-08 14:11:22,15.08838189,0.0001448,53.2186,313.4767,89.3337,270.7821,6.4035e-05,7.31e-06,0.0,0 STARLINK-3766,1 52296U 22041AM  24190.59123105  .00000731  00000-0  64035-4 0  9998,2 52296  53.2186 313.4767 0001448  89.3337 270.7821 15.08838189122555,6917.886,95.438,540.753,538.749,0.0
52296.0,STARLINK-3766,PAYLOAD,2024-07-08 15:46:45,15.08840562,0.0001374,53.2176,313.1785,86.1951,273.9198,9.4553e-05,1.217e-05,0.0,0 STARLINK-3766,1 52296U 22041AM  24190.65746959  .00001217  00000-0  94553-4 0  9991,2 52296  53.2176 313.1785 0001374  86.1951 273.9198 15.08840562122567,6917.879,95.438,540.694,538.793,0.0
52296.0,STARLINK-3766,PAYLOAD,2024-07-09 14:02:09,15.08837246,0.000109,53.2167,309.0153,91.9424,268.1694,7.4495e-05,8.98e-06,0.0,0 STARLINK-3766,1 52296U 22041AM  24191.58483356  .00000898  00000-0  74495-4 0  9990,2 52296  53.2167 309.0153 0001090  91.9424 268.1694 15.08837246123927,6917.889,95.438,540.508,539.0,0.0
52296.0,STARLINK-3766,PAYLOAD,2024-07-09 15:37:32,15.08845167,0.0001189,53.217,308.7181,88.0202,272.0927,5.1117e-05,5.26e-06,0.0,0 STARLINK-3766,1 52296U 22041AM  24191.65106913  .00000526  00000-0  51117-4 0  9993,2 52296  53.2170 308.7181 0001189  88.0202 272.0927 15.08845167123933,6917.865,95.437,540.552,538.907,0.0
52296.0,STARLINK-3766,PAYLOAD,2024-07-10 13:52:56,15.08839496,0.0001351,53.2173,304.555,85.1227,274.9919,8.3718e-05,1.045e-05,0.0,0 STARLINK-3766,1 52296U 22041AM  24192.57843279  .00001045  00000-0  83718-4 0  9997,2 52296  53.2173 304.5550 0001351  85.1227 274.9919 15.08839496124072,6917.882,95.438,540.682,538.812,0.0
52296.0,STARLINK-3766,PAYLOAD,2024-07-11 13:43:43,15.0884841,0.0001291,53.2179,300.095,90.7068,269.4072,0.00013807,1.911e-05,0.0,0 STARLINK-3766,1 52296U 22041AM  24193.57202576  .00001911  00000-0  13807-3 0  9990,2 52296  53.2179 300.0950 0001291  90.7068 269.4072 15.08848410123008,6917.855,95.437,540.613,538.827,0.0
52296.0,STARLINK-3766,PAYLOAD,2024-07-12 13:34:29,15.08855996,0.0001425,53.2183,295.6338,95.7338,264.3816,0.00020002,2.898e-05,0.0,0 STARLINK-3766,1 52296U 22041AM  24194.56562095  .00002898  00000-0  20002-3 0  9995,2 52296  53.2183 295.6338 0001425  95.7338 264.3816 15.08855996123159,6917.831,95.437,540.682,538.711,0.0
52296.0,STARLINK-3766,PAYLOAD,2024-07-12 16:45:16,15.08850365,0.0001206,53.2163,295.0375,92.9336,267.1794,0.00014604,2.038e-05,0.0,0 STARLINK-3766,1 52296U 22041AM  24194.69810338  .00002038  00000-0  14604-3 0  9992,2 52296  53.2163 295.0375 0001206  92.9336 267.1794 15.08850365124394,6917.849,95.437,540.548,538.879,0.0
52296.0,STARLINK-3766,PAYLOAD,2024-07-13 13:25:17,15.08848928,0.0001133,53.2165,291.1731,83.9941,276.118,4.1092e-05,3.66e-06,0.0,0 STARLINK-3766,1 52296U 22041AM  24195.55922713  .00000366  00000-0  41092-4 0  9993,2 52296  53.2165 291.1731 0001133  83.9941 276.1180 15.08848928124526,6917.853,95.437,540.502,538.934,0.0
52296.0,STARLINK-3766,PAYLOAD,2024-07-14 13:16:04,15.08837114,0.0001334,53.2172,286.7141,91.1104,269.0041,0.00024004,3.534e-05,0.0,0 STARLINK-3766,1 52296U 22041AM  24196.55283307  .00003534  00000-0  24004-3 0  9996,2 52296  53.2172 286.7141 0001334  91.1104 269.0041 15.08837114124672,6917.889,95.438,540.677,538.831,0.0
52296.0,STARLINK-3766,PAYLOAD,2024-07-15 13:06:51,15.08839817,0.0001396,53.2159,282.2501,86.591,273.5242,5.7412e-05,6.26e-06,0.0,0 STARLINK-3766,1 52296U 22041AM  24197.54643349  .00000626  00000-0  57412-4 0  9991,2 52296  53.2159 282.2501 0001396  86.5910 273.5242 15.08839817123606,6917.881,95.438,540.712,538.78,0.0
52296.0,STARLINK-3766,PAYLOAD,2024-07-15 14:42:14,15.08845562,0.0001428,53.2168,281.956,91.9062,268.2094,0.00013086,1.796e-05,0.0,0 STARLINK-3766,1 52296U 22041AM  24197.61267091  .00001796  00000-0  13086-3 0  9992,2 52296  53.2168 281.9560 0001428  91.9062 268.2094 15.08845562124837,6917.863,95.437,540.716,538.741,0.0
52296.0,STARLINK-3766,PAYLOAD,2024-07-15 22:39:10,15.08838018,0.0001327,53.2165,280.4654,89.1257,270.9887,-2.6064e-05,-7.03e-06,0.0,0 STARLINK-3766,1 52296U 22041AM  24197.94387338 -.00000703  00000-0 -26064-4 0  9995,2 52296  53.2165 280.4654 0001327  89.1257 270.9887 15.08838018123663,6917.886,95.438,540.669,538.833,0.0
52296.0,STARLINK-3766,PAYLOAD,2024-07-16 05:00:43,15.08836577,0.0001421,53.2159,279.2782,88.8262,271.2892,0.0001156,1.552e-05,0.0,0 STARLINK-3766,1 52296U 22041AM  24198.20883615  .00001552  00000-0  11560-3 0  9999,2 52296  53.2159 279.2782 0001421  88.8262 271.2892 15.08836577124929,6917.891,95.438,540.739,538.773,0.0
52296.0,STARLINK-3766,PAYLOAD,2024-07-16 12:57:38,15.08847655,0.0001191,53.2154,277.7905,80.8662,279.2465,0.000163,2.308e-05,0.0,0 STARLINK-3766,1 52296U 22041AM  24198.54002999  .00002308  00000-0  16300-3 0  9991,2 52296  53.2154 277.7905 0001191  80.8662 279.2465 15.08847655124972,6917.857,95.437,540.546,538.898,0.0
52296.0,STARLINK-3766,PAYLOAD,2024-07-17 11:13:03,15.08827846,0.0001554,53.2166,273.6264,83.4059,276.711,-3.7602e-05,-8.86e-06,0.0,0 STARLINK-3766,1 52296U 22041AM  24199.46740727 -.00000886  00000-0 -37602-4 0  9991,2 52296  53.2166 273.6264 0001554  83.4059 276.7110 15.08827846125116,6917.918,95.438,540.858,538.707,0.0
52296.0,STARLINK-3766,PAYLOAD,2024-07-17 22:20:45,15.0883342,0.0001358,53.2175,271.5427,97.2502,262.8644,8.3439e-05,1.04e-05,0.0,0 STARLINK-3766,1 52296U 22041AM  24199.93108758  .00001040  00000-0  83439-4 0  9995,2 52296  53.2175 271.5427 0001358  97.2502 262.8644 15.08833420123966,6917.901,95.438,540.705,538.826,0.0
52296.0,STARLINK-3766,PAYLOAD,2024-07-18 11:03:50,15.08848389,0.0001438,53.2155,269.1674,79.3452,280.7702,0.00030707,4.604e-05,0.0,0 STARLINK-3766,1 52296U 22041AM  24200.46100344  .00004604  00000-0  30707-3 0  9997,2 52296  53.2155 269.1674 0001438  79.3452 280.7702 15.08848389125264,6917.855,95.437,540.715,538.725,0.0
52296.0,STARLINK-3766,PAYLOAD,2024-07-19 10:54:37,15.0884729,0.000137,53.2154,264.7057,81.8814,278.2334,0.00032285,4.855e-05,0.0,0 STARLINK-3766,1 52296U 22041AM  24201.45460528  .00004855  00000-0  32285-3 0  9991,2 52296  53.2154 264.7057 0001370  81.8814 278.2334 15.08847290125414,6917.858,95.437,540.671,538.775,0.0
52296.0,STARLINK-3766,PAYLOAD,2024-07-20 10:45:24,15.08830631,0.0001299,53.2153,260.2454,89.3158,270.7983,-0.00021208,-3.661e-05,0.0,0 STARLINK-3766,1 52296U 22041AM  24202.44820340 -.00003661  00000-0 -21208-3 0  9992,2 52296  53.2153 260.2454 0001299  89.3158 270.7983 15.08830631125563,6917.909,95.438,540.673,538.875,0.0
52296.0,STARLINK-3766,PAYLOAD,2024-07-21 04:14:38,15.08839,0.0001247,53.2147,256.9698,86.5386,273.5749,-3.8795e-05,-9.05e-06,0.0,0 STARLINK-3766,1 52296U 22041AM  24203.17684019 -.00000905  00000-0 -38795-4 0  9992,2 52296  53.2147 256.9698 0001247  86.5386 273.5749 15.08839000125675,6917.883,95.438,540.611,538.886,0.0
52296.0,STARLINK-3766,PAYLOAD,2024-07-21 10:36:11,15.08849368,0.0001365,53.2151,255.7844,90.7762,269.3387,0.00018927,2.726e-05,0.0,0 STARLINK-3766,1 52296U 22041AM  24203.44179506  .00002726  00000-0  18927-3 0  9997,2 52296  53.2151 255.7844 0001365  90.7762 269.3387 15.08849368125710,6917.852,95.437,540.661,538.772,0.0
52296.0,STARLINK-3766,PAYLOAD,2024-07-22 02:30:03,15.08836705,0.000153,53.2153,252.8095,113.3039,246.8114,0.00028107,4.188e-05,0.0,0 STARLINK-3766,1 52296U 22041AM  24204.10420335  .00004188  00000-0  28107-3 0  9995,2 52296  53.2153 252.8095 0001530 113.3039 246.8114 15.08836705125811,6917.89,95.438,540.814,538.697,0.0
52296.0,STARLINK-3766,PAYLOAD,2024-07-22 10:26:58,15.08842409,0.0001455,53.215,251.3238,104.9274,255.1879,0.00025536,3.779e-05,0.0,0 STARLINK-3766,1 52296U 22041AM  24204.43540220  .00003779  00000-0  25536-3 0  9995,2 52296  53.2150 251.3238 0001455 104.9274 255.1879 15.08842409124643,6917.873,95.437,540.745,538.731,0.0
52296.0,STARLINK-3766,PAYLOAD,2024-07-23 11:53:08,15.08845243,0.0001602,53.215,246.5674,109.7792,250.3373,0.00016713,2.373e-05,0.0,0 STARLINK-3766,1 52296U 22041AM  24205.49524069  .00002373  00000-0  16713-3 0  9991,2 52296  53.2150 246.5674 0001602 109.7792 250.3373 15.08845243126024,6917.864,95.437,540.838,538.621,0.0
52296.0,STARLINK-3766,PAYLOAD,2024-07-24 10:08:33,15.08834996,0.0001536,53.2148,242.4015,110.4798,249.6359,2.9937e-05,1.88e-06,0.0,0 STARLINK-3766,1 52296U 22041AM  24206.42260835  .00000188  00000-0  29937-4 0  9998,2 52296  53.2148 242.4015 0001536 110.4798 249.6359 15.08834996126169,6917.896,95.438,540.823,538.698,0.0
52296.0,STARLINK-3766,PAYLOAD,2024-07-25 06:48:33,15.08848066,0.0001366,53.2142,238.5373,98.5332,261.5815,0.00016939,2.41e-05,0.0,0 STARLINK-3766,1 52296U 22041AM  24207.28372303  .00002410  00000-0  16939-3 0  9994,2 52296  53.2142 238.5373 0001366  98.5332 261.5815 15.08848066125079,6917.856,95.437,540.666,538.776,0.0
52296.0,STARLINK-3766,PAYLOAD,2024-07-25 08:23:56,15.08849146,0.0002148,53.2163,238.2381,129.6541,230.4641,0.00025372,3.753e-05,0.0,0 STARLINK-3766,1 52296U 22041AM  24207.34996062  .00003753  00000-0  25372-3 0  9997,2 52296  53.2163 238.2381 0002148 129.6541 230.4641 15.08849146126304,6917.852,95.437,541.203,538.231,0.0
52296.0,STARLINK-3766,PAYLOAD,2024-07-26 01:53:11,15.08840808,0.0001622,53.2142,234.971,75.7982,284.319,9.539e-05,1.23e-05,0.0,0 STARLINK-3766,1 52296U 22041AM  24208.07860836  .00001230  00000-0  95390-4 0  9993,2 52296  53.2142 234.9710 0001622  75.7982 284.3190 15.08840808126411,6917.878,95.438,540.865,538.621,0.0
52296.0,STARLINK-3766,PAYLOAD,2024-07-26 08:14:44,15.08837515,0.0001493,53.2148,233.7798,85.7029,274.4134,6.9351e-05,8.16e-06,0.0,0 STARLINK-3766,1 52296U 22041AM  24208.34357119  .00000816  00000-0  69351-4 0  9995,2 52296  53.2148 233.7798 0001493  85.7029 274.4134 15.08837515125237,6917.888,95.438,540.786,538.72,0.0
